[{"OBJECT_NAME":"DONGPO 02","OBJECT_ID":"2022-098J","EPOCH":"2026-03-09T23:27:05.924160","MEAN_MOTION":15.59463601,"ECCENTRICITY":0.00021558,"INCLINATION":97.5385,"RA_OF_ASC_NODE":192.9325,"ARG_OF_PERICENTER":312.765,"MEAN_ANOMALY":47.3424,"EPHEMERIS_TYPE":0,"CLASSIFICATION_TYPE":"U","NORAD_CAT_ID":53452,"ELEMENT_SET_NO":999,"REV_AT_EPOCH":19926,"BSTAR":0.00088877097,"MEAN_MOTION_DOT":0.00070735,"MEAN_MOTION_DDOT":0},{"OBJECT_NAME":"SDX02","OBJECT_ID":"2024-253B","EPOCH":"2026-03-09T21:41:23.516160","MEAN_MOTION":15.57750254,"ECCENTRICITY":0.00053925,"INCLINATION":54.9936,"RA_OF_ASC_NODE":91.8205,"ARG_OF_PERICENTER":12.1656,"MEAN_ANOMALY":347.951,"EPHEMERIS_TYPE":0,"CLASSIFICATION_TYPE":"U","NORAD_CAT_ID":62460,"ELEMENT_SET_NO":999,"REV_AT_EPOCH":6699,"BSTAR":0.00064573353,"MEAN_MOTION_DOT":0.00048557,"MEAN_MOTION_DDOT":0}]
